stk.v.11.0
BEGIN Ephemeris
NumberOfEphemerisPoints 6028
ScenarioEpoch 21 Mar 2026 09:32:00.000
InterpolationMethod Lagrange
InterpolationOrder 7
CentralBody Earth
CoordinateSystem TEME
DistanceUnit Kilometers
BEGIN EphemerisTimePosVel
423972.465543 3092.434471026 5456.611051309 -2828.935117788 2.499099890 2.140707487 6.863062117
424067.123383 3311.623148536 5628.987389522 -2164.983708142 2.127843911 1.498053332 7.152569252
424161.781223 3494.532461952 5739.697279042 -1477.314607436 1.733263193 0.838964186 7.363727925
424256.439063 3639.157207557 5787.525570799 -773.460746613 1.319678623 0.170659109 7.494219166
424351.096903 3743.911453043 5771.945913900 -61.132922952 0.891619904 -0.499540817 7.542607332
424445.754743 3807.645974191 5693.126624437 651.864647218 0.453775997 -1.164292655 7.508356090
424540.412583 3829.660912211 5551.928945308 1357.719824497 0.010943787 -1.816312065 7.391834565
424635.070423 3809.713510157 5349.897711571 2048.698154800 -0.432024458 -2.448453166 7.194313569
424729.728263 3748.020840670 5089.244519171 2717.227651428 -0.870274276 -3.053786925 6.917951923
424824.386103 3645.257492179 4772.823577334 3355.981820144 -1.299002248 -3.625677208 6.565773043
424919.043943 3502.548236093 4404.100505550 3957.960014770 -1.713508709 -4.157853665 6.141632007
425013.701783 3321.455752784 3987.114414029 4516.564239199 -2.109249340 -4.644480626 5.650173468
425108.359623 3103.963548679 3526.433680862 5025.671549940 -2.481885088 -5.080221262 5.096780868
425203.017463 2852.454249954 3027.105909084 5479.701260966 -2.827329846 -5.460296281 4.487517508
425297.675303 2569.683509549 2494.602611489 5873.676209280 -3.141795368 -5.780536523 3.829060103
425392.333143 2258.749812851 1934.759229813 6203.277404619 -3.421832930 -6.037428854 3.128625565
425486.990983 1923.060513008 1353.711146914 6464.891459327 -3.664371263 -6.228154857 2.393891817
425581.648823 1566.294468728 757.826395342 6655.650273939 -3.866750333 -6.350621875 1.632913507
425676.306663 1192.361695239 153.635802671 6773.462539446 -4.026750612 -6.403486075 0.854033545
425770.964504 805.360472373 -452.238657342 6817.036707642 -4.142617486 -6.386167259 0.065791462
425865.622344 409.532381993 -1053.156518595 6785.895175374 -4.213080555 -6.298855265 -0.723170410
425960.280184 9.215770072 -1642.531680980 6680.379525806 -4.237367589 -6.142507884 -1.504201900
426054.938024 -391.201853800 -2213.904670442 6501.646768910 -4.215213003 -5.918840316 -2.268740039
426149.595864 -787.331954976 -2761.013504611 6251.656623098 -4.146860737 -5.630306275 -3.008403128
426244.253704 -1174.833119952 -3277.862383468 5933.149979205 -4.033061539 -5.280070976 -3.715082806
426338.911544 -1549.458679918 -3758.787448834 5549.618785588 -3.875064651 -4.871976272 -4.381033076
426433.569384 -1907.103287324 -4198.518889203 5105.267688037 -3.674604020 -4.410498370 -4.998955327
426528.227224 -2243.847933010 -4592.238707299 4604.967849207 -3.433879173 -3.900698562 -5.562078399
426622.885064 -2556.002909038 -4935.633516105 4054.203458511 -3.155530974 -3.348167545 -6.064232817
426717.542904 -2840.148245377 -5224.941784541 3459.011523793 -2.842612542 -2.758963943 -6.499918374
426812.200744 -3093.171176942 -5456.995015695 2825.915609810 -2.498555652 -2.139547704 -6.864364329
426906.858584 -3312.300230589 -5629.252407954 2161.854254656 -2.127132980 -1.496709131 -7.153581552
427001.516424 -3495.135559379 -5739.828621621 1474.104853260 -1.732416641 -0.837494317 -7.364406070
427096.174264 -3639.675193079 -5787.514349903 770.203846089 -1.318733447 -0.169127812 -7.494533520
427190.832104 -3744.336919179 -5771.789472612 57.864090942 -0.890617414 0.501066618 -7.542544154
427285.489944 -3807.975557002 -5692.828652670 -655.109674385 -0.452760005 1.165746274 -7.507918142
427380.147784 -3829.895438317 -5551.499318535 -1360.906350883 -0.009958698 1.817629973 -7.391040988
427474.805624 -3809.857960614 -5349.352059219 -2051.794041228 0.432935591 2.449577764 -7.193199045
427569.463464 -3748.084133271 -5088.603541544 -2720.204720123 0.871071632 3.054669062 -6.916565163
427664.121304 -3645.252091704 -4772.112140905 -3358.817086236 1.299650980 3.626278331 -6.564174655
427758.779144 -3502.489609540 -4403.346556183 -3960.636690840 1.713980463 4.158147501 -6.139891848
427853.436984 -3321.361693387 -3986.347755605 -4519.072468976 2.109523498 4.644454334 -5.648367590
427948.094824 -3103.853398256 -3525.684672711 -5028.008839063 2.481949669 5.079875991 -5.094988199
428042.752664 -2852.348053580 -3026.404139133 -5481.872586000 2.827182026 5.459647120 -4.485816395
428137.410505 -2569.601139486 -2493.975603131 -5875.693800220 3.141441609 5.779611844 -3.827524892
428232.068345 -2258.710100039 -1934.231239000 -6205.160210374 3.421288693 6.036269071 -3.127323353
428326.726185 -1923.080424059 -1353.302102056 -6466.664319568 3.663660332 6.226810657 -2.392879518
428421.384025 -1566.388364405 -757.551026340 -6657.342833485 3.865903781 6.349152006 -1.632235361
428516.041865 -1192.540702825 -153.502997150 -6775.107952640 4.025805436 6.401954778 -0.853719192
428610.699705 -805.631999348 452.226242466 -6818.670189351 4.141614995 6.384641458 -0.065854640
428705.357545 -409.899792297 1053.002573234 -6787.552461926 4.212064563 6.297401645 0.722732462
428800.015385 -9.678237084 1642.246080609 -6682.095313145 4.236382500 6.141189976 1.503408323
428894.673225 390.649311137 2213.503044492 -6503.453196212 4.214301869 5.917715718 2.267625515
428989.331065 786.698254456 2760.516553385 -6253.581868140 4.146063380 5.629424139 3.007016368
429083.988905 1174.130726358 3277.294973444 -5935.217026857 4.032412807 5.279469854 3.713484417
429178.646745 1548.703060249 3758.177525876 -5551.844423265 3.874592897 4.871682436 4.379292916
429273.304585 1906.312234813 4197.896257194 -5107.661772010 3.674329862 4.410524662 4.997149449
429367.962425 2243.040789477 4591.633725567 -4607.532873833 3.433814592 3.901043833 5.560285729
429462.620265 2555.199719557 4935.075772579 -4056.934447221 3.155678793 3.348816706 6.062531703
429557.278105 2839.368882210 5224.458802610 -3461.896246594 2.842966301 2.759888621 6.498383164
429651.935945 3092.434471026 5456.611051309 -2828.935117788 2.499099890 2.140707487 6.863062117
429746.593785 3311.623148536 5628.987389522 -2164.983708141 2.127843911 1.498053332 7.152569252
429841.251625 3494.532461952 5739.697279042 -1477.314607436 1.733263193 0.838964186 7.363727925
429935.909465 3639.157207557 5787.525570799 -773.460746614 1.319678623 0.170659109 7.494219166
430030.567305 3743.911453043 5771.945913900 -61.132922952 0.891619904 -0.499540817 7.542607332
430125.225145 3807.645974191 5693.126624437 651.864647217 0.453775997 -1.164292655 7.508356090
430219.882985 3829.660912211 5551.928945308 1357.719824497 0.010943787 -1.816312065 7.391834565
430314.540825 3809.713510157 5349.897711571 2048.698154800 -0.432024458 -2.448453166 7.194313569
430409.198666 3748.020840670 5089.244519171 2717.227651428 -0.870274276 -3.053786925 6.917951923
430503.856506 3645.257492179 4772.823577334 3355.981820145 -1.299002248 -3.625677208 6.565773043
430598.514346 3502.548236093 4404.100505550 3957.960014770 -1.713508709 -4.157853665 6.141632007
430693.172186 3321.455752784 3987.114414028 4516.564239199 -2.109249340 -4.644480626 5.650173468
430787.830026 3103.963548678 3526.433680862 5025.671549940 -2.481885088 -5.080221262 5.096780868
430882.487866 2852.454249954 3027.105909084 5479.701260966 -2.827329846 -5.460296281 4.487517508
430977.145706 2569.683509549 2494.602611488 5873.676209280 -3.141795368 -5.780536523 3.829060103
431071.803546 2258.749812851 1934.759229813 6203.277404619 -3.421832930 -6.037428854 3.128625565
431166.461386 1923.060513009 1353.711146914 6464.891459326 -3.664371263 -6.228154857 2.393891817
431261.119226 1566.294468728 757.826395342 6655.650273939 -3.866750333 -6.350621875 1.632913507
431355.777066 1192.361695239 153.635802671 6773.462539446 -4.026750612 -6.403486075 0.854033545
431450.434906 805.360472373 -452.238657342 6817.036707642 -4.142617486 -6.386167259 0.065791462
431545.092746 409.532381993 -1053.156518595 6785.895175374 -4.213080555 -6.298855265 -0.723170410
431639.750586 9.215770072 -1642.531680980 6680.379525806 -4.237367589 -6.142507884 -1.504201900
431734.408426 -391.201853800 -2213.904670443 6501.646768910 -4.215213003 -5.918840316 -2.268740039
431829.066266 -787.331954976 -2761.013504611 6251.656623098 -4.146860737 -5.630306275 -3.008403128
431923.724106 -1174.833119952 -3277.862383468 5933.149979205 -4.033061539 -5.280070976 -3.715082806
432018.381946 -1549.458679919 -3758.787448834 5549.618785588 -3.875064651 -4.871976272 -4.381033076
432113.039786 -1907.103287324 -4198.518889203 5105.267688037 -3.674604020 -4.410498370 -4.998955327
432207.697626 -2243.847933010 -4592.238707299 4604.967849207 -3.433879173 -3.900698562 -5.562078399
432302.355466 -2556.002909038 -4935.633516105 4054.203458510 -3.155530974 -3.348167545 -6.064232817
432397.013306 -2840.148245377 -5224.941784541 3459.011523793 -2.842612542 -2.758963943 -6.499918374
432491.671146 -3093.171176941 -5456.995015695 2825.915609810 -2.498555652 -2.139547704 -6.864364329
432586.328986 -3312.300230589 -5629.252407954 2161.854254656 -2.127132980 -1.496709131 -7.153581552
432680.986826 -3495.135559379 -5739.828621621 1474.104853260 -1.732416641 -0.837494317 -7.364406070
432775.644667 -3639.675193079 -5787.514349903 770.203846089 -1.318733447 -0.169127812 -7.494533520
432870.302507 -3744.336919179 -5771.789472612 57.864090942 -0.890617414 0.501066618 -7.542544154
432964.960347 -3807.975557002 -5692.828652670 -655.109674386 -0.452760005 1.165746274 -7.507918142
433059.618187 -3829.895438317 -5551.499318535 -1360.906350884 -0.009958698 1.817629973 -7.391040988
433154.276027 -3809.857960614 -5349.352059220 -2051.794041228 0.432935591 2.449577764 -7.193199045
433248.933867 -3748.084133271 -5088.603541544 -2720.204720123 0.871071632 3.054669062 -6.916565163
END EphemerisTimePosVel
END Ephemeris
